COSMO-SKYMED 1          
1 31598U 07023A   26193.79942435  .00001318  00000+0  11913-3 0  9992
2 31598  97.8844  25.8719 0001224 102.8755 257.2603 14.97212324 33621
COSMOS 2428             
1 31792U 07029A   26193.70101042  .00000189  00000+0  12720-3 0  9998
2 31792  70.9382 300.9081 0007200  86.1006 274.0938 14.12932980981756
SL-16 R/B               
1 31793U 07029B   26193.65186272  .00000052  00000+0  51587-4 0  9995
2 31793  70.9746 269.6994 0002011 256.4478 265.5117 14.14850888983041
KORONAS-FOTON           
1 33504U 09003A   26193.83930448  .00009153  00000+0  18469-3 0  9995
2 33504  82.4300 145.4905 0012341  69.5285 290.7288 15.46262940965069
CZ-2C R/B               
1 37731U 11030B   26193.83513021  .00000555  00000+0  76197-4 0  9998
2 37731  97.8668 148.7614 0050927 304.0441  83.9286 14.81529839808627
H-2A R/B                
1 38341U 12025E   26193.51024188  .00000665  00000+0  64800-4 0  9997
2 38341  98.4848 170.7478 0042351 264.2031  95.4358 14.95833596766870
SHIJIAN-16 (SJ-16)      
1 39358U 13057A   26193.84336346  .00000547  00000+0  55767-4 0  9991
2 39358  74.9736 308.0885 0015894 170.5901 189.5588 14.92666757690178
SL-4 R/B                
1 39679U 14021B   26193.14115566  .00005567  00000+0  11874-3 0  9998
2 39679  51.6063  88.4767 0089812 197.2226 162.5706 15.42441534675462
ALOS-2                  
1 39766U 14029A   26193.83965469  .00001187  00000+0  16582-3 0  9999
2 39766  97.9226 290.6369 0001601  92.8363 267.3032 14.79471808655370
YAOGAN-29               
1 41038U 15069A   26193.88297209 -.00000371  00000+0 -38934-4 0  9996
2 41038  98.0026 222.5547 0000924  14.6424 345.4816 14.83102954574437
ASTRO-H (HITOMI)        
1 41337U 16012A   26193.47426961  .00001447  00000+0  79686-4 0  9993
2 41337  30.9988 270.8641 0009604 147.9668 212.1556 15.10625525571114
HXMT (HUIYAN)           
1 42758U 17034A   26193.85219997  .00002781  00000+0  14151-3 0  9994
2 42758  43.0152  40.1103 0032518 306.3947  53.3904 15.18677056501560
SAOCOM 1A               
1 43641U 18076A   26193.85755309 -.00000132  00000+0 -99730-5 0  9993
2 43641  97.8888  20.2335 0001444  83.2669 276.8708 14.82144984419906
H-2A R/B                
1 43682U 18084L   26193.63511438  .00013595  00000+0  27750-3 0  9992
2 43682  98.8543  78.1023 0020706 310.1111  49.8318 15.46134702425058
SAOCOM 1B               
1 46265U 20059A   26193.82126140  .00000676  00000+0  91462-4 0  9998
2 46265  97.8892  19.2941 0001590  82.2213 277.9181 14.82159292317286
CSS (TIANHE)            
1 48274U 21035A   26193.33050829  .00000806  00000+0  14701-4 0  9997
2 48274  41.4686 169.1964 0002428 290.9815  69.0763 15.58035041297092
COSMOS 2550             
1 48865U 21056A   26193.32488843  .00000599  00000+0  24042-4 0  9994
2 48865  67.1435  23.8662 0008431 270.9704  89.0484 15.33806320282579
CZ-2C R/B               
1 52794U 22058K   26193.75436455  .00033227  00000+0  34469-3 0  9999
2 52794  50.1855  30.2996 0030314  12.2309 347.9395 15.63720290229648
CZ-2C R/B               
1 54039U 22132E   26193.59694027  .00047389  00000+0  32232-3 0  9999
2 54039  97.2893 201.8140 0009965 353.9386   6.1757 15.74723535209945
GSLV R/B                
1 54149U 22138AN  26193.78099784  .00001381  00000+0  11572-3 0  9993
2 54149  87.3818 124.3900 0023767  60.1104 300.2485 14.97376293202643
XRISM                   
1 57800U 23137A   26193.46492365  .00002062  00000+0  10955-3 0  9998
2 57800  31.0006 195.8363 0007833 219.3306 140.6765 15.12657724156698
ACS3                    
1 59588U 24077B   26192.74048558  .00010248  00000+0  71307-2 0  9990
2 59588  97.1723 106.0854 0121011  40.7850 320.2298 13.95349463111466
SPACEMOBILE-003         
1 61045U 24163A   26193.12443383  .00000008  00000+0  15017-4 0  9996
2 61045  52.9645 194.7701 0003953 176.8899 183.2120 15.20757146101564
SPACEMOBILE-005         
1 61046U 24163B   26193.37078742  .00003105  00000+0  15376-3 0  9995
2 61046  52.9783 193.5770 0008680 187.3412 172.7457 15.20767447101595
SPACEMOBILE-001         
1 61047U 24163C   26192.44911905  .00000309  00000+0  28551-4 0  9993
2 61047  52.9736 197.5273 0007475 183.3179 176.7767 15.20792937101458
SPACEMOBILE-002         
1 61048U 24163D   26192.03876027  .00008243  00000+0  38281-3 0  9999
2 61048  52.9623 199.4399 0006620 180.9990 179.0992 15.20841812101395
SPACEMOBILE-004         
1 61049U 24163E   26193.00710093  .00011603  00000+0  53337-3 0  9991
2 61049  52.9667 194.7854 0006095 215.6608 144.3979 15.20795354101542
CZ-8A R/B               
1 66004U 25231K   26193.69598807 -.00000097  00000+0  23889-4 0  9992
2 66004  50.0046 290.7917 0116548 313.8139  45.3185 14.30161741 38590
SZ-21 MODULE            
1 66515U 25246C   26193.22249502  .00034298  00000+0  19171-3 0  9996
2 66515  41.4697 151.1451 0007591 200.3493 159.7051 15.78595026 37698
SPACEMOBILE-006         
1 67232U 25309A   26193.11775960  .00000291  00000+0  29209-4 0  9993
2 67232  52.9937 217.4329 0010353 205.0874 154.9618 15.18648870 30389
